*******************************************************************************
JPL/HORIZONS               3753 Cruithne (1986 TO)         2023-May-05 15:27:55
Rec #:    3753 (+COV) Soln.date: 2023-Mar-01_06:10:23   # obs: 1216 (1973-2022)
 
IAU76/J2000 helio. ecliptic osc. elements (au, days, deg., period=Julian yrs):
 
  EPOCH=  2456900.5 ! 2014-Aug-31.00 (TDB)         Residual RMS= .35645
   EC= .5148627256994029   QR= .4840184658385133   TP= 2457012.169995938
   OM= 126.2462939076055   W=  43.80978547847901   IN= 19.80747881540994
   A= .9976938311662474    MA= 249.5553600271496   ADIST= 1.511369196493981
   PER= .99656             N= .9890269900000001    ANGMOM= .014729875
   DAN= .53459             DDN= 1.16671            L= 168.3137556
   B= 13.566979            MOID= .0710535          TP= 2014-Dec-20.6699959380
 
Asteroid physical parameters (km, seconds, rotational period in hours):
   GM= n.a.                RAD= 1.0355             ROTPER= 27.3099
   H= 15.5                 G= .150                 B-V= n.a.
                           ALBEDO= .365            STYP= Q
 
ASTEROID comments: 
1: soln ref.= JPL#240, OCC=0
2: source=ORB
*******************************************************************************

  

*******************************************************************************
Ephemeris / WWW_USER Fri May  5 15:27:55 2023 Pasadena, USA      / Horizons
*******************************************************************************
Target body name: 3753 Cruithne (1986 TO)         {source: JPL#240}
Center body name: Earth (399)                     {source: DE441}
Center-site name: BODY CENTER
*******************************************************************************
Start time      : A.D. 2007-Sep-16 00:00:00.0000 TDB
Stop  time      : A.D. 2008-Aug-11 00:00:00.0000 TDB
Step-size       : 1440 minutes
*******************************************************************************
Center geodetic : 0.0, 0.0, 0.0                   {E-lon(deg),Lat(deg),Alt(km)}
Center cylindric: 0.0, 0.0, 0.0                   {E-lon(deg),Dxy(km),Dz(km)}
Center radii    : 6378.137, 6378.137, 6356.752 km {Equator_a, b, pole_c}
Small perturbers: Yes                             {source: SB441-N16}
Output units    : KM-S
Calendar mode   : Mixed Julian/Gregorian
Output type     : GEOMETRIC cartesian states
Output format   : 1 (position only)
EOP file        : eop.230504.p230727
EOP coverage    : DATA-BASED 1962-JAN-20 TO 2023-MAY-04. PREDICTS-> 2023-JUL-26
Reference frame : Ecliptic of J2000.0
*******************************************************************************
Initial IAU76/J2000 heliocentric ecliptic osculating elements (au, days, deg.):
  EPOCH=  2456900.5 ! 2014-Aug-31.00 (TDB)         Residual RMS= .35645        
   EC= .5148627256994029   QR= .4840184658385133   TP= 2457012.169995938       
   OM= 126.2462939076055   W=  43.80978547847901   IN= 19.80747881540994       
  Equivalent ICRF heliocentric cartesian coordinates (au, au/d):
   X= 1.215347990905840E+00  Y= 5.153520927692684E-01  Z=-2.481738801145509E-01
  VX=-7.990656955364673E-03 VY= 8.039467650712289E-03 VZ= 3.939584837771865E-03
Asteroid physical parameters (km, seconds, rotational period in hours):        
   GM= n.a.                RAD= 1.0355             ROTPER= 27.3099             
   H= 15.5                 G= .150                 B-V= n.a.                   
                           ALBEDO= .365            STYP= Q                     
*******************************************************************************
            JDTDB,            Calendar Date (TDB),                      X,                      Y,                      Z,
**************************************************************************************************************************
$$SOE
2454659.500000000, A.D. 2008-Jul-12 00:00:00.0000,  1.644755179671968E+08,  1.172138250303432E+08, -5.730539308673485E+07,
2454660.500000000, A.D. 2008-Jul-13 00:00:00.0000,  1.620519143701812E+08,  1.177666775490110E+08, -5.759687853486110E+07,
2454661.500000000, A.D. 2008-Jul-14 00:00:00.0000,  1.596249161987365E+08,  1.182817909513214E+08, -5.788333831852161E+07,
2454662.500000000, A.D. 2008-Jul-15 00:00:00.0000,  1.571951189643878E+08,  1.187593232661055E+08, -5.816473838376068E+07,
2454663.500000000, A.D. 2008-Jul-16 00:00:00.0000,  1.547631094707023E+08,  1.191994353741057E+08, -5.844104505573408E+07,
2454664.500000000, A.D. 2008-Jul-17 00:00:00.0000,  1.523294665977021E+08,  1.196022902786434E+08, -5.871222501496039E+07,
2454665.500000000, A.D. 2008-Jul-18 00:00:00.0000,  1.498947623276853E+08,  1.199680523094735E+08, -5.897824526272975E+07,
2454666.500000000, A.D. 2008-Jul-19 00:00:00.0000,  1.474595630977405E+08,  1.202968863973926E+08, -5.923907306100456E+07,
2454667.500000000, A.D. 2008-Jul-20 00:00:00.0000,  1.450244314915440E+08,  1.205889575835370E+08, -5.949467583471415E+07,
2454668.500000000, A.D. 2008-Jul-21 00:00:00.0000,  1.425899282095665E+08,  1.208444309195575E+08, -5.974502102933279E+07,
2454669.500000000, A.D. 2008-Jul-22 00:00:00.0000,  1.401566142001020E+08,  1.210634718773233E+08, -5.999007592267856E+07,
2454670.500000000, A.D. 2008-Jul-23 00:00:00.0000,  1.377250528063154E+08,  1.212462473359302E+08, -6.022980739506339E+07,
2454671.500000000, A.D. 2008-Jul-24 00:00:00.0000,  1.352958117846900E+08,  1.213929271728838E+08, -6.046418166477494E+07,
2454672.500000000, A.D. 2008-Jul-25 00:00:00.0000,  1.328694650568084E+08,  1.215036864721640E+08, -6.069316399649442E+07,
2454673.500000000, A.D. 2008-Jul-26 00:00:00.0000,  1.304465940370291E+08,  1.215787083692851E+08, -6.091671839096846E+07,
2454674.500000000, A.D. 2008-Jul-27 00:00:00.0000,  1.280277883091933E+08,  1.216181875469340E+08, -6.113480726898350E+07,
2454675.500000000, A.D. 2008-Jul-28 00:00:00.0000,  1.256136453166476E+08,  1.216223343154584E+08, -6.134739117484837E+07,
2454676.500000000, A.D. 2008-Jul-29 00:00:00.0000,  1.232047686497157E+08,  1.215913790089163E+08, -6.155442854358214E+07,
2454677.500000000, A.D. 2008-Jul-30 00:00:00.0000,  1.208017645850226E+08,  1.215255761113541E+08, -6.175587559355950E+07,
2454678.500000000, A.D. 2008-Jul-31 00:00:00.0000,  1.184052368634024E+08,  1.214252072307196E+08, -6.195168640658563E+07,
2454679.500000000, A.D. 2008-Aug-01 00:00:00.0000,  1.160157802656192E+08,  1.212905819943922E+08, -6.214181322532148E+07,
2454680.500000000, A.D. 2008-Aug-02 00:00:00.0000,  1.136339741126525E+08,  1.211220363370347E+08, -6.232620693576050E+07,
2454681.500000000, A.D. 2008-Aug-03 00:00:00.0000,  1.112603770123441E+08,  1.209199284103835E+08, -6.250481763795128E+07,
2454682.500000000, A.D. 2008-Aug-04 00:00:00.0000,  1.088955238010033E+08,  1.206846330848256E+08, -6.267759517971321E+07,
2454683.500000000, A.D. 2008-Aug-05 00:00:00.0000,  1.065399248728717E+08,  1.204165363193830E+08, -6.284448955305921E+07,
2454684.500000000, A.D. 2008-Aug-06 00:00:00.0000,  1.041940673816471E+08,  1.201160304371504E+08, -6.300545111296955E+07,
2454685.500000000, A.D. 2008-Aug-07 00:00:00.0000,  1.018584174600629E+08,  1.197835107926096E+08, -6.316043063697508E+07,
2454686.500000000, A.D. 2008-Aug-08 00:00:00.0000,  9.953342266212688E+07,  1.194193737904906E+08, -6.330937927690667E+07,
2454687.500000000, A.D. 2008-Aug-09 00:00:00.0000,  9.721951410943803E+07,  1.190240159063091E+08, -6.345224845868223E+07,
2454688.500000000, A.D. 2008-Aug-10 00:00:00.0000,  9.491710812578885E+07,  1.185978332749152E+08, -6.358898977329870E+07,
2454689.500000000, A.D. 2008-Aug-11 00:00:00.0000,  9.262660737076323E+07,  1.181412214706637E+08, -6.371955488438554E+07,
